norad_id,name,regime,epoch,line1,line2,inclination,eccentricity,mean_motion,raan,arg_pericenter,mean_anomaly
43015,MIRATA,LEO,24291.19727553,1 43015U 17073C   24291.19727553  .00044326  00000-0  16815-2 0  1756\,2 43015  97.5737 175.1077 0144363 200.5125 159.0277 15.17455956374763,97.5737,0.0144363,15.17455956,175.1077,200.5125,159.0277
43015,MIRATA,LEO,24291.59292852,1 43015U 17073C   24291.59292852  .00041519  00000-0  15743-2 0    17\,2 43015  97.5735 175.5034 0144336 199.1516 160.4260 15.17486857374824,97.5735,0.0144336,15.17486857,175.5034,199.1516,160.426
43015,MIRATA,LEO,24292.18639220,1 43015U 17073C   24292.18639220  .00045656  00000-0  17274-2 0    14\,2 43015  97.5730 176.0972 0144297 197.1003 162.5342 15.17539325374914,97.573,0.0144297,15.17539325,176.0972,197.1003,162.5342
43015,MIRATA,LEO,24293.17545614,1 43015U 17073C   24293.17545614  .00067558  00000-0  25419-2 0  1787\,2 43015  97.5727 177.0869 0144165 193.6832 166.0477 15.17637631375065,97.5727,0.0144165,15.17637631,177.0869,193.6832,166.0477
43015,MIRATA,LEO,24293.43919651,1 43015U 17073C   24293.43919651  .00068332  00000-0  25685-2 0  1799\,2 43015  97.5720 177.3515 0144209 192.7722 166.9844 15.17660350375102,97.572,0.0144209,15.1766035,177.3515,192.7722,166.9844
43015,MIRATA,LEO,24294.16445795,1 43015U 17073C   24294.16445795  .00078633  00000-0  29450-2 0  1804\,2 43015  97.5721 178.0771 0144146 190.2211 169.6085 15.17742017375211,97.5721,0.0144146,15.17742017,178.0771,190.2211,169.6085
43015,MIRATA,LEO,24294.62597139,1 43015U 17073C   24294.62597139  .00077324  00000-0  28938-2 0  1812\,2 43015  97.5725 178.5391 0144029 188.6154 171.2606 15.17784176375282,97.5725,0.0144029,15.17784176,178.5391,188.6154,171.2606
43015,MIRATA,LEO,24295.21933048,1 43015U 17073C   24295.21933048  .00039621  00000-0  14892-2 0    14\,2 43015  97.5720 179.1333 0144034 186.4968 173.4404 15.17804904375377,97.572,0.0144034,15.17804904,179.1333,186.4968,173.4404
43015,MIRATA,LEO,24296.20822251,1 43015U 17073C   24296.20822251  .00036734  00000-0  13780-2 0    14\,2 43015  97.5720 180.1228 0144044 183.0119 177.0263 15.17879395375520,97.572,0.0144044,15.17879395,180.1228,183.0119,177.0263
43015,MIRATA,LEO,24296.66968786,1 43015U 17073C   24296.66968786  .00038607  00000-0  14463-2 0    18\,2 43015  97.5718 180.5847 0144000 181.4096 178.6752 15.17917221375594,97.5718,0.0144,15.17917221,180.5847,181.4096,178.6752
43015,MIRATA,LEO,24297.19705937,1 43015U 17073C   24297.19705937  .00043957  00000-0  16433-2 0  1849\,2 43015  97.5716 181.1127 0143862 179.5711 180.5673 15.17972484375672,97.5716,0.0143862,15.17972484,181.1127,179.5711,180.5673
43015,MIRATA,LEO,24297.59257644,1 43015U 17073C   24297.59257644  .00042742  00000-0  15954-2 0    16\,2 43015  97.5714 181.5090 0144011 178.2202 181.9575 15.18008530375737,97.5714,0.0144011,15.1800853,181.509,178.2202,181.9575
43015,MIRATA,LEO,24297.65849502,1 43015U 17073C   24297.65849502  .00042650  00000-0  15919-2 0    12\,2 43015  97.5714 181.5750 0143972 177.9921 182.1922 15.18015092375740,97.5714,0.0143972,15.18015092,181.575,177.9921,182.1922
43015,MIRATA,LEO,24298.18583367,1 43015U 17073C   24298.18583367  .00047484  00000-0  17681-2 0    13\,2 43015  97.5713 182.1030 0143950 176.1830 184.0539 15.18069299375825,97.5713,0.014395,15.18069299,182.103,176.183,184.0539
43015,MIRATA,LEO,24298.64724020,1 43015U 17073C   24298.64724020  .00054723  00000-0  20334-2 0  1864\,2 43015  97.5713 182.5648 0143812 174.5969 185.6859 15.18119699375895,97.5713,0.0143812,15.18119699,182.5648,174.5969,185.6859
43015,MIRATA,LEO,24299.63591908,1 43015U 17073C   24299.63591908  .00044209  00000-0  16412-2 0  1872\,2 43015  97.5718 183.5544 0143625 171.1945 189.1860 15.18216547376044,97.5718,0.0143625,15.18216547,183.5544,171.1945,189.186
43015,MIRATA,LEO,24299.96546482,1 43015U 17073C   24299.96546482  .00049540  00000-0  18365-2 0    12\,2 43015  97.5720 183.8845 0143521 170.0438 190.3694 15.18248998376093,97.572,0.0143521,15.18248998,183.8845,170.0438,190.3694
43015,MIRATA,LEO,24300.42681613,1 43015U 17073C   24300.42681613  .00048419  00000-0  17928-2 0    10\,2 43015  97.5719 184.3464 0143490 168.4104 192.0493 15.18294641376160,97.5719,0.014349,15.18294641,184.3464,168.4104,192.0493
43015,MIRATA,LEO,24300.62453410,1 43015U 17073C   24300.62453410  .00047581  00000-0  17606-2 0  1882\,2 43015  97.5722 184.5441 0143508 167.7157 192.7638 15.18317130376191,97.5722,0.0143508,15.1831713,184.5441,167.7157,192.7638
43015,MIRATA,LEO,24300.95405629,1 43015U 17073C   24300.95405629  .00068912  00000-0  25398-2 0    19\,2 43015  97.5722 184.8746 0143442 166.5353 193.9773 15.18361568376247,97.5722,0.0143442,15.18361568,184.8746,166.5353,193.9773
43015,MIRATA,LEO,24301.15176443,1 43015U 17073C   24301.15176443  .00074024  00000-0  27243-2 0  1890\,2 43015  97.5722 185.0727 0143369 165.8325 194.6997 15.18395361376275,97.5722,0.0143369,15.18395361,185.0727,165.8325,194.6997
43015,MIRATA,LEO,24301.41536937,1 43015U 17073C   24301.41536937  .00067188  00000-0  24718-2 0    17\,2 43015  97.5720 185.3364 0143378 164.9143 195.6437 15.18431558376315,97.572,0.0143378,15.18431558,185.3364,164.9143,195.6437
43015,MIRATA,LEO,24301.94256058,1 43015U 17073C   24301.94256058  .00074067  00000-0  27172-2 0    19\,2 43015  97.5720 185.8646 0143280 163.0645 197.5446 15.18504828376392,97.572,0.014328,15.18504828,185.8646,163.0645,197.5446
43015,MIRATA,LEO,24302.40383166,1 43015U 17073C   24302.40383166  .00064869  00000-0  23782-2 0    14\,2 43015  97.5717 186.3263 0143228 161.4803 199.1722 15.18566122376467,97.5717,0.0143228,15.18566122,186.3263,161.4803,199.1722
43015,MIRATA,LEO,24302.93097436,1 43015U 17073C   24302.93097436  .00074465  00000-0  27213-2 0  1910\,2 43015  97.5716 186.8546 0143094 159.6527 201.0491 15.18644787376547,97.5716,0.0143094,15.18644787,186.8546,159.6527,201.0491
43015,MIRATA,LEO,24303.19453515,1 43015U 17073C   24303.19453515  .00065117  00000-0  23805-2 0    10\,2 43015  97.5716 187.1185 0142977 158.7516 201.9739 15.18683595376585,97.5716,0.0142977,15.18683595,187.1185,158.7516,201.9739
43015,MIRATA,LEO,24303.91929592,1 43015U 17073C   24303.91929592  .00073413  00000-0  26740-2 0    12\,2 43015  97.5715 187.8447 0142835 156.2729 204.5179 15.18782201376697,97.5715,0.0142835,15.18782201,187.8447,156.2729,204.5179
43015,MIRATA,LEO,24304.11694910,1 43015U 17073C   24304.11694910  .00074855  00000-0  27241-2 0  1927\,2 43015  97.5712 188.0427 0142747 155.5901 205.2182 15.18814642376722,97.5712,0.0142747,15.18814642,188.0427,155.5901,205.2182
43015,MIRATA,LEO,24304.24871535,1 43015U 17073C   24304.24871535  .00073362  00000-0  26686-2 0    14\,2 43015  97.5708 188.1745 0142722 155.1415 205.6785 15.18836938376747,97.5708,0.0142722,15.18836938,188.1745,155.1415,205.6785
43015,MIRATA,LEO,24305.17103189,1 43015U 17073C   24305.17103189  .00069741  00000-0  25278-2 0  1934\,2 43015  97.5706 189.0988 0142571 151.9297 208.9720 15.18979518376880,97.5706,0.0142571,15.18979518,189.0988,151.9297,208.972
43015,MIRATA,LEO,24305.56628370,1 43015U 17073C   24305.56628370  .00066251  00000-0  23977-2 0    16\,2 43015  97.5710 189.4945 0142588 150.5731 210.3628 15.19037129376943,97.571,0.0142588,15.19037129,189.4945,150.5731,210.3628
43015,MIRATA,LEO,24305.89564818,1 43015U 17073C   24305.89564818  .00073539  00000-0  26554-2 0    19\,2 43015  97.5709 189.8251 0142528 149.4040 211.5606 15.19087199376995,97.5709,0.0142528,15.19087199,189.8251,149.404,211.5606
43015,MIRATA,LEO,24306.15913172,1 43015U 17073C   24306.15913172  .00087464  00000-0  31493-2 0  1943\,2 43015  97.5708 190.0894 0142431 148.4851 212.5015 15.19136004377034,97.5708,0.0142431,15.19136004,190.0894,148.4851,212.5015
43015,MIRATA,LEO,24306.62020914,1 43015U 17073C   24306.62020914  .00068199  00000-0  24556-2 0    11\,2 43015  97.5708 190.5513 0142420 146.8892 214.1359 15.19207837377102,97.5708,0.014242,15.19207837,190.5513,146.8892,214.1359
43015,MIRATA,LEO,24306.94953624,1 43015U 17073C   24306.94953624  .00074774  00000-0  26867-2 0    12\,2 43015  97.5706 190.8821 0142327 145.7152 215.3372 15.19259122377155,97.5706,0.0142327,15.19259122,190.8821,145.7152,215.3372
43015,MIRATA,LEO,24307.14712759,1 43015U 17073C   24307.14712759  .00073313  00000-0  26328-2 0  1951\,2 43015  97.5704 191.0802 0142258 145.0244 216.0437 15.19289531377183,97.5704,0.0142258,15.19289531,191.0802,145.0244,216.0437
43015,MIRATA,LEO,24307.54229836,1 43015U 17073C   24307.54229836  .00077464  00000-0  27751-2 0    12\,2 43015  97.5701 191.4761 0142255 143.6820 217.4173 15.19349669377247,97.5701,0.0142255,15.19349669,191.4761,143.682,217.4173
43015,MIRATA,LEO,24307.87159332,1 43015U 17073C   24307.87159332  .00087719  00000-0  31335-2 0  1963\,2 43015  97.5699 191.8067 0142169 142.5310 218.5939 15.19411464377292,97.5699,0.0142169,15.19411464,191.8067,142.531,218.5939
43015,MIRATA,LEO,24307.93745070,1 43015U 17073C   24307.93745070  .00088146  00000-0  31478-2 0    18\,2 43015  97.5699 191.8727 0142139 142.3032 218.8266 15.19423124377305,97.5699,0.0142139,15.19423124,191.8727,142.3032,218.8266
43015,MIRATA,LEO,24308.59599634,1 43015U 17073C   24308.59599634  .00069965  00000-0  24964-2 0    14\,2 43015  97.5695 192.5329 0141953 140.0653 221.1129 15.19537560377400,97.5695,0.0141953,15.1953756,192.5329,140.0653,221.1129
43015,MIRATA,LEO,24308.92525196,1 43015U 17073C   24308.92525196  .00081870  00000-0  29135-2 0  1973\,2 43015  97.5692 192.8635 0141831 138.9187 222.2833 15.19589369377456,97.5692,0.0141831,15.19589369,192.8635,138.9187,222.2833
43015,MIRATA,LEO,24309.58372789,1 43015U 17073C   24309.58372789  .00075790  00000-0  26919-2 0    19\,2 43015  97.5690 193.5236 0141608 136.6734 224.5740 15.19698052377557,97.569,0.0141608,15.19698052,193.5236,136.6734,224.574
43015,MIRATA,LEO,24309.91294836,1 43015U 17073C   24309.91294836  .00074275  00000-0  26351-2 0    19\,2 43015  97.5689 193.8544 0141521 135.5019 225.7686 15.19748697377607,97.5689,0.0141521,15.19748697,193.8544,135.5019,225.7686
